GSAT0101 (PRN E11)      
1 37846U 11060A   22019.84507242 -.00000051  00000+0  00000+0 0  9997
2 37846  56.9394  25.3779 0003339 325.4969  34.5118  1.70475132 63680
GSAT0102 (PRN E12)      
1 37847U 11060B   22019.48523086 -.00000052  00000+0  00000+0 0  9993
2 37847  56.9399  25.3872 0005115 309.3836 236.2687  1.70475432 63683
GSAT0103 (PRN E19)      
1 38857U 12055A   22018.71220721  .00000016  00000+0  00000+0 0  9994
2 38857  55.0979 145.8170 0002607 239.5171 120.4094  1.70473628 57557
GSAT0104 (PRN E20)      
1 38858U 12055B   22019.26915295  .00000019  00000+0  00000+0 0  9996
2 38858  55.0983 145.8033 0001234 170.3596 189.5978  1.70473897 57565
GSAT0201 (PRN E18)      
1 40128U 14050A   22018.90636523 -.00000087  00000+0  00000+0 0  9996
2 40128  50.3734 338.2422 1632274 118.7846 258.6013  1.85519419 48441
GSAT0202 (PRN E14)      
1 40129U 14050B   22019.16792399 -.00000085  00000+0  00000+0 0  9998
2 40129  50.4000 337.2878 1629348 119.5975 257.6464  1.85519999 50617
GSAT0203 (PRN E26)      
1 40544U 15017A   22020.21300027 -.00000051  00000+0  00000+0 0  9997
2 40544  56.7347  25.4214 0005184 266.0787  93.8915  1.70476034 42433
GSAT0204 (PRN E22)      
1 40545U 15017B   22019.87896715 -.00000052  00000+0  00000+0 0  9993
2 40545  56.7402  25.4423 0004640 255.8475 104.1313  1.70475693 42421
GSAT0205 (PRN E24)      
1 40889U 15045A   22019.64640050  .00000043  00000+0  00000+0 0  9998
2 40889  55.7211 266.0742 0006258  17.4278 342.6893  1.70474842 39575
GSAT0206 (PRN E30)      
1 40890U 15045B   22019.86674336  .00000043  00000+0  00000+0 0  9998
2 40890  55.7206 266.0642 0004507  11.6150 348.4905  1.70473131 39602
GSAT0209 (PRN E09)      
1 41174U 15079A   22019.45538087  .00000019  00000+0  00000+0 0  9991
2 41174  55.1138 145.4991 0002434 319.0824  40.8558  1.70473567 37915
GSAT0208 (PRN E08)      
1 41175U 15079B   22020.26162064  .00000022  00000+0  00000+0 0  9995
2 41175  55.1124 145.4756 0001730 321.5566  38.3926  1.70473553 37926
GSAT0211 (PRN E02)      
1 41549U 16030A   22019.79475666  .00000044  00000+0  00000+0 0  9993
2 41549  55.8648 265.9836 0004819 348.0457  12.0384  1.70474563 35231
GSAT0210 (PRN E01)      
1 41550U 16030B   22018.91429572  .00000043  00000+0  00000+0 0  9992
2 41550  55.8647 266.0092 0003273 327.8564  32.2203  1.70474708 35218
GSAT0207 (PRN E07)      
1 41859U 16069A   22019.16125116  .00000018  00000+0  00000+0 0  9993
2 41859  54.7738 145.7252 0002430 292.8769  67.0518  1.70473544 31951
GSAT0212 (PRN E03)      
1 41860U 16069B   22019.01467576  .00000017  00000+0  00000+0 0  9997
2 41860  54.7712 145.7273 0001487 348.0828  11.8672  1.70473487 32202
GSAT0213 (PRN E04)      
1 41861U 16069C   22019.38015365  .00000019  00000+0  00000+0 0  9995
2 41861  54.7738 145.7220 0002435 252.2917 107.6373  1.70473640 32070
GSAT0214 (PRN E05)      
1 41862U 16069D   22019.52726444  .00000019  00000+0  00000+0 0  9999
2 41862  54.7721 145.7127 0001541 250.7415 109.1983  1.70473669 32202
GSAT0215 (PRN E21)      
1 43055U 17079A   22019.43154966  .00000044  00000+0  00000+0 0  9999
2 43055  55.8413 265.8282 0002625 331.7890  28.2929  1.70473861 25549
GSAT0216 (PRN E25)      
1 43056U 17079B   22019.72388377  .00000044  00000+0  00000+0 0  9997
2 43056  55.8416 265.8198 0003971 311.7193  48.3424  1.70473984 25569
GSAT0217 (PRN E27)      
1 43057U 17079C   22018.77091566  .00000043  00000+0  00000+0 0  9992
2 43057  55.8403 265.8461 0004166 326.5615  33.5089  1.70473891 25536
GSAT0218 (PRN E31)      
1 43058U 17079D   22019.57750392  .00000044  00000+0  00000+0 0  9992
2 43058  55.8399 265.8212 0004186 304.3255  55.7309  1.70473940 25571
GSAT0221 (PRN E15)      
1 43564U 18060A   22019.47545525 -.00000052  00000+0  00000+0 0  9994
2 43564  57.1169  25.2190 0005822 279.0389  80.9262  1.70475934 21737
GSAT0222 (PRN E33)      
1 43565U 18060B   22019.69529354 -.00000051  00000+0  00000+0 0  9990
2 43565  57.1199  25.2132 0005483 285.3551  74.6146  1.70475892 21779
GSAT0219 (PRN E36)      
1 43566U 18060C   22018.74270746 -.00000053  00000+0  00000+0 0  9996
2 43566  57.1195  25.2410 0005145 285.8004  74.1758  1.70475953 21736
GSAT0220 (PRN E13)      
1 43567U 18060D   22019.54929306 -.00000052  00000+0  00000+0 0  9998
2 43567  57.1198  25.2199 0005366 282.2442  77.7265  1.70475923 21735
GSAT0223                
1 49809U 21116A   22008.22772889 -.00000085  00000+0  00000+0 0  9990
2 49809  57.1187  25.4353 0022745  79.5494 282.3768  1.68525270   575
GSAT0224                
1 49810U 21116B   22011.14741184 -.00000078  00000+0  00000+0 0  9993
2 49810  57.1073  25.3416 0008726  15.0853  72.3600  1.69516045   626
